CCSDS_OEM_VERS = 2.0  
CREATION_DATE  = 2026-03-24T10:38:20
ORIGINATOR     = ESOC/OPS-GFA                            
 
 



META_START
OBJECT_NAME          = LISA                                    
OBJECT_ID            = -1000                                   
CENTER_NAME          = SUN                     
REF_FRAME            = EME2000 
TIME_SYSTEM          = TCB
START_TIME           = 2036-12-23T00:00:30.346418            
STOP_TIME            = 2047-09-07T04:20:50.647794            
INTERPOLATION        = HERMITE                                 
INTERPOLATION_DEGREE = 7                                       
META_STOP

2038-02-22T00:40:41.324154    -1.00683652807223335e+08    1.01691473480808198e+08    4.49332138987662792e+07   -2.20892425417965548e+01   -1.82944462077071570e+01   -7.71846876185372821e+00    3.95972310769713992e-06   -3.99948208707891078e-06   -1.76720395917744648e-06
2038-02-22T20:46:17.827944    -1.02271097437357023e+08    1.00357699518805146e+08    4.43702828079787940e+07   -2.18005702634132028e+01   -1.85818392716929068e+01   -7.84549330775868725e+00    4.02151018410383866e-06   -3.94638955059297349e-06   -1.74478309680182859e-06
2038-02-23T16:51:54.331733    -1.03837499611744016e+08    9.90032761457524300e+07    4.37982221717953831e+07   -2.15074588279464329e+01   -1.88653632512319227e+01   -7.97088337092471999e+00    4.08245741925012131e-06   -3.89250932267782640e-06   -1.72201364753715404e-06
2038-02-24T13:01:10.974738    -1.05387209509823605e+08    9.76242706736522168e+07    4.32153691631355733e+07   -2.12090574423451237e+01   -1.91458064277958542e+01   -8.09498789930540141e+00    4.14273500473478634e-06   -3.83768549458469648e-06   -1.69882966986961600e-06
2038-02-25T09:10:27.617744    -1.06915110512614414e+08    9.62250621814104170e+07    4.26235728761880770e+07   -2.09063139457633298e+01   -1.94222437841698401e+01   -8.21739787615032746e+00    4.20214438492083666e-06   -3.78209215047021242e-06   -1.67530471606523004e-06
2038-02-26T05:19:44.260750    -1.08420889896563619e+08    9.48059433397412896e+07    4.20229571582018360e+07   -2.05992917437848462e+01   -1.96946199113186964e+01   -8.33808874138781952e+00    4.26067423709948758e-06   -3.72574100477126357e-06   -1.65144375440203072e-06
2038-02-27T01:29:00.903756    -1.09904239510538071e+08    9.33672107905820459e+07    4.14136476169510707e+07   -2.02880550587166475e+01   -1.99628802534601206e+01   -8.45703629688662417e+00    4.31831337504704563e-06   -3.66864386510614477e-06   -1.62725179444411855e-06
2038-02-27T21:38:17.546762    -1.11364855884445131e+08    9.19091651014280468e+07    4.07957716019328013e+07   -1.99726689189230804e+01   -2.02269711153030620e+01   -8.57421670966342653e+00    4.37505076935193147e-06   -3.61081264487626356e-06   -1.60273389263820549e-06
2038-02-28T17:47:34.189768    -1.12802440313315451e+08    9.04321107111683041e+07    4.01694581816748604e+07   -1.96531991468254006e+01   -2.04868396700932323e+01   -8.68960651544938933e+00    4.43087556394770766e-06   -3.55225937299206136e-06   -1.57789515664810363e-06
2038-03-01T13:56:50.832774    -1.14216698922028393e+08    8.89363558691331446e+07    3.95348381179399490e+07   -1.93297123458391660e+01   -2.07424339682600056e+01   -8.80318262252541039e+00    4.48577708885772272e-06   -3.49299620072537110e-06   -1.55274074842834115e-06
2038-03-02T10:06:07.475780    -1.15607342715844154e+08    8.74222125690774322e+07    3.88920438376161754e+07   -1.90022758865246217e+01   -2.09937029464560929e+01   -8.91492231573457161e+00    4.53974486914290118e-06   -3.43303540568177639e-06   -1.52727588603392024e-06
2038-03-03T06:15:24.118786    -1.16974087621907353e+08    8.58899964798224866e+07    3.82412094030844495e+07   -1.86709578922251325e+01   -2.12405964367812814e+01   -9.02480326058021731e+00    4.59276863006825330e-06   -3.37238939290549702e-06   -1.50150584417179010e-06
2038-03-04T02:24:40.761791    -1.18316654526885957e+08    8.43400268742801100e+07    3.75824704818530902e+07   -1.83358272244687335e+01   -2.14830651759817250e+01   -9.13280350731811197e+00    4.64483829846195969e-06   -3.31107069309523810e-06   -1.47543595348453394e-06
2038-03-04T22:33:57.404797    -1.19634769315910563e+08    8.27726265585821122e+07    3.69159643162501454e+07   -1.79969534684078312e+01   -2.17210608144160169e+01   -9.23890149495109370e+00    4.69594400030493330e-06   -3.24909195796171051e-06   -1.44907159857985601e-06
2038-03-05T18:43:14.047803    -1.20928162917977780e+08    8.11881218030383736e+07    3.62418296939636916e+07   -1.76544069185722208e+01   -2.19545359245794778e+01   -9.34307605503472516e+00    4.74607605451341709e-06   -3.18646595269849731e-06   -1.42241821479321939e-06
2038-03-06T14:52:30.690809    -1.22196571362982467e+08    7.95868422766470611e+07    3.55602069202205613e+07   -1.73082585652104122e+01   -2.21834440089780145e+01   -9.44530641520232805e+00    4.79522496293209451e-06   -3.12320554557737293e-06   -1.39548128368873434e-06
2038-03-07T11:01:47.333815    -1.23439735855543166e+08    7.79691209868800342e+07    3.48712377923939675e+07   -1.69585800814943397e+01   -2.24077395071428676e+01   -9.54557220231786019e+00    4.84338139653774219e-06   -3.05932369466671092e-06   -1.36826632729757159e-06
2038-03-08T07:11:03.976821    -1.24657402870784938e+08    7.63352942264668047e+07    3.41750655778302476e+07   -1.66054438118625853e+01   -2.26273778015776657e+01   -9.64385344516514387e+00    4.89053617787383165e-06   -2.99483343170016457e-06   -1.34077890110595022e-06
2038-03-09T03:20:20.619827    -1.25849324277244210e+08    7.46857015289007574e+07    3.34718349956852719e+07   -1.62489227617771448e+01   -2.28423152224291144e+01   -9.74013057658176606e+00    4.93668025961221356e-06   -2.92974784299078142e-06   -1.31302458574629521e-06
2038-03-09T23:35:57.727512    -1.27021302077910721e+08    7.30119146823950410e+07    3.27579504378153495e+07   -1.58871951256706279e+01   -2.30535986794911345e+01   -9.83487331333702386e+00    4.98203918227474948e-06   -2.86373461658723015e-06   -1.28486158163845537e-06
2038-03-10T19:51:34.835198    -1.28166776794623420e+08    7.13228935389882177e+07    3.20372307625803165e+07   -1.55221969697025877e+01   -2.32600462893774846e+01   -9.92755247327787416e+00    5.02635940646591914e-06   -2.79714691913967607e-06   -1.25644045964202775e-06
2038-03-11T16:07:11.942883    -1.29285512687589899e+08    6.96189923270359337e+07    3.13098271628593840e+07   -1.51540043586185469e+01   -2.34616166525219505e+01   -1.00181494439723036e+01    5.06963258976080592e-06   -2.72999849097071240e-06   -1.22776709126533399e-06
2038-03-12T12:22:49.050569    -1.30377279523944378e+08    6.79005682525656074e+07    3.05758921705826335e+07   -1.47826939601900094e+01   -2.36582693740499295e+01   -1.01066460424015556e+01    5.11185054367855299e-06   -2.66230314265777791e-06   -1.19884738049940511e-06
2038-03-13T08:38:26.158254    -1.31441852675836384e+08    6.61679814312380478e+07    2.98355796281522214e+07   -1.44083430330537912e+01   -2.38499650691668705e+01   -1.01930245174467036e+01    5.15300525836488555e-06   -2.59407476189615334e-06   -1.16968726686470541e-06
2038-03-14T04:54:03.265940    -1.32479013191544667e+08    6.44215948172324002e+07    2.90890446582924016e+07   -1.40310294129290103e+01   -2.40366653689748198e+01   -1.02772675525649717e+01    5.19308892248269076e-06   -2.52532731843637187e-06   -1.14029272759551974e-06
2038-03-15T01:09:40.373626    -1.33488547845294088e+08    6.26617741296181604e+07    2.83364436326225847e+07   -1.36508314975578600e+01   -2.42183329265788814e+01   -1.03593582685939527e+01    5.23209393831825663e-06   -2.45607486709813774e-06   -1.11066977896304117e-06
2038-03-15T21:25:17.481311    -1.34470249171441138e+08    6.08888877767925337e+07    2.75779341392538771e+07   -1.32678282307193687e+01   -2.43949314233431949e+01   -1.04392802266208431e+01    5.27001293209174918e-06   -2.38633154885506537e-06   -1.08082447673454670e-06
2038-03-16T17:40:54.588997    -1.35423915488693029e+08    5.91033067795614749e+07    2.68136749497095831e+07   -1.28820990856654358e+01   -2.45664255751560141e+01   -1.05170174308538069e+01    5.30683875949145132e-06   -2.31611159000010636e-06   -1.05076291577315495e-06
2038-03-17T13:56:31.696681    -1.36349350920025736e+08    5.73054046934425756e+07    2.60438259854700752e+07   -1.24937240483283567e+01   -2.47327811385633929e+01   -1.05925543314325861e+01    5.34256450640240936e-06   -2.24542929937718018e-06   -1.02049122877160462e-06
2038-03-18T10:12:08.804367    -1.37246365413966328e+08    5.54955575307681561e+07    2.52685482844425105e+07   -1.21027836006490848e+01   -2.48939649166311199e+01   -1.06658758271154639e+01    5.37718348486756732e-06   -2.17429906369638366e-06   -9.90015584127894394e-07
2038-03-19T06:27:45.912052    -1.38114774772904336e+08    5.36741436831667200e+07    2.44880039676558115e+07   -1.17093587043754894e+01   -2.50499447643943967e+01   -1.07369672677797077e+01    5.41068922424607367e-06   -2.10273534091887540e-06   -9.59342182956519778e-07
2038-03-20T02:43:23.019738    -1.38954400694098353e+08    5.18415438450012803e+07    2.37023562064814232e+07   -1.13135307856798448e+01   -2.52006895937548769e+01   -1.08058144566725769e+01    5.44307545756484545e-06   -2.03075265170449295e-06   -9.28477255232212026e-07
2038-03-20T22:59:00.127423    -1.39765070829041868e+08    4.99981409383424446e+07    2.29117691906801052e+07   -1.09153817209447688e+01   -2.53461693776845998e+01   -1.08724036523500676e+01    5.47433610318008983e-06   -1.95836556898729758e-06   -8.97427055095405629e-07
2038-03-21T19:14:37.235109    -1.40546618866854787e+08    4.81443200400550812e+07    2.21164080975755751e+07   -1.05149938240669236e+01   -2.54863551535963815e+01   -1.09367215702404277e+01    5.50446524145899614e-06   -1.88558870552169733e-06   -8.66197855248855966e-07
